******************************************************************************* Revised: Sep 28, 2012             Deimos / (Mars)                          402 SATELLITE PHYSICAL PROPERTIES:  Radius (km)             = 7.8 x 6.0 x 5.1 Density (g cm^-3)   =  1.76 +- 0.30  Mass (10^20 kg )        = 1.80 (10^-5)    Geometric Albedo    =  0.06                                (+- 0.15)    V(1,0)              = +12.89 SATELLITE ORBITAL DATA:  Semi-major axis, a (km) = 23.4632(10^3)   Orbital period      = 1.263 d  Eccentricity, e         =  0.00033        Rotational period   = Synchronous  Inclination, i  (deg)   =  1.791*******************************************************************************  *******************************************************************************Ephemeris / WWW_USER Fri Jan 29 14:20:05 2021 Pasadena, USA      / Horizons*******************************************************************************Target body name: Deimos (402)                    {source: mar097}Center body name: Solar System Barycenter (0)     {source: DE431mx}Center-site name: BODY CENTER*******************************************************************************Start time      : A.D. 2021-Jan-01 00:00:00.0000 TDBStop  time      : A.D. 2021-Jan-02 00:00:00.0000 TDBStep-size       : 1440 minutes*******************************************************************************Center geodetic : 0.00000000,0.00000000,0.0000000 {E-lon(deg),Lat(deg),Alt(km)}Center cylindric: 0.00000000,0.00000000,0.0000000 {E-lon(deg),Dxy(km),Dz(km)}Center radii    : (undefined)                                                  Output units    : KM-SOutput type     : GEOMETRIC cartesian statesOutput format   : 2 (position and velocity)Reference frame : Ecliptic of J2000.0*******************************************************************************            JDTDB,            Calendar Date (TDB),                      X,                      Y,                      Z,                     VX,                     VY,                     VZ,**************************************************************************************************************************************************************************************************$$SOE2459215.500000000, A.D. 2021-Jan-01 00:00:00.0000,  9.188798987617676E+07,  2.066727875830320E+08,  2.047401354170829E+06, -1.995025369027309E+01,  1.215067110783206E+01,  2.248385092504330E-01,2459216.500000000, A.D. 2021-Jan-02 00:00:00.0000,  9.003262052224687E+07,  2.077171309076584E+08,  2.125082145128399E+06, -2.087230282308331E+01,  1.055335162345540E+01,  4.805549281223191E-01,$$EOE**************************************************************************************************************************************************************************************************Coordinate system description:  Ecliptic at the standard reference epoch    Reference epoch: J2000.0    X-Y plane: adopted Earth orbital plane at the reference epoch               Note: obliquity of 84381.448 arcseconds (IAU76) wrt ICRF equator    X-axis   : ICRF    Z-axis   : perpendicular to the X-Y plane in the directional (+ or -) sense               of Earth's north pole at the reference epoch.  Symbol meaning:    JDTDB    Julian Day Number, Barycentric Dynamical Time      X      X-component of position vector (km)      Y      Y-component of position vector (km)      Z      Z-component of position vector (km)      VX     X-component of velocity vector (km/sec)                                 VY     Y-component of velocity vector (km/sec)                                 VZ     Z-component of velocity vector (km/sec)                           Geometric states/elements have no aberrations applied. Computations by ...     Solar System Dynamics Group, Horizons On-Line Ephemeris System     4800 Oak Grove Drive, Jet Propulsion Laboratory     Pasadena, CA  91109   USA     Information  : https://ssd.jpl.nasa.gov/     Documentation: https://ssd.jpl.nasa.gov/?horizons_doc     Connect      : https://ssd.jpl.nasa.gov/?horizons (browser)                    telnet ssd.jpl.nasa.gov 6775       (command-line)                    e-mail command interface available                    Script and CGI interfaces available     Author       : Jon.D.Giorgini@jpl.nasa.gov*******************************************************************************